STARLINK-37056          
1 68260U 26054AE  26087.83335648  .00196343  00000+0  97927-3 0  9994
2 68260  53.1590 216.4885 0001425  77.6967 320.6922 15.80796928  2994
TEN-KOH 2               
1 68261U 25241B   26087.91595891  .00010253  00000+0  44672-3 0  9993
2 68261  51.6387 341.4537 0004460 225.9744 134.0867 15.22746398  2670
STARLINK-37162          
1 68262U 26055A   26087.83335648 -.01087597  36793-3 -26974-2 0  9995
2 68262  53.1581 241.6872 0000708  55.3988 346.5823 15.95233118  2711
STARLINK-37156          
1 68263U 26055B   26087.83335648 -.01093995  37221-3 -27000-2 0  9993
2 68263  53.1580 241.6824 0000850  54.2191 350.2511 15.95324745  2713
STARLINK-37163          
1 68264U 26055C   26087.83335648 -.01103836  37907-3 -26956-2 0  9990
2 68264  53.1578 241.6686 0000811  56.9293 353.8389 15.95522876  2713
STARLINK-37133          
1 68265U 26055D   26087.83335648 -.01096303  37401-3 -26914-2 0  9994
2 68265  53.1579 241.6755 0000714  55.3722 352.3218 15.95423692  2715
STARLINK-37042          
1 68266U 26055E   26087.83335648 -.01103918  37951-3 -26811-2 0  9992
2 68266  53.1577 241.6608 0000876  55.1281 359.6225 15.95623727  2717
STARLINK-37103          
1 68267U 26055F   26087.83335648 -.01113091  38566-3 -26884-2 0  9999
2 68267  53.1580 241.6535 0000825  56.0570   2.1231 15.95728034  2710
STARLINK-36999          
1 68268U 26055G   26087.83335648 -.01117190  38864-3 -26835-2 0  9991
2 68268  53.1579 241.6472 0000795  56.8440   4.4344 15.95830044  2714
STARLINK-36962          
1 68269U 26055H   26087.83335648 -.01118634  38996-3 -26721-2 0  9996
2 68269  53.1579 241.6403 0000851  57.0441   7.5157 15.95932090  2716
STARLINK-37028          
1 68270U 26055J   26087.83335648 -.01131260  39878-3 -26739-2 0  9997
2 68270  53.1578 241.6191 0000896  54.5370  20.0146 15.96128299  2710
STARLINK-37029          
1 68271U 26055K   26087.83335648 -.01138533  40303-3 -27061-2 0  9992
2 68271  53.1578 241.6265 0000855  58.8052  12.3755 15.96027100  2711
STARLINK-36974          
1 68272U 26055L   26087.83335648 -.01145802  40864-3 -26910-2 0  9994
2 68272  53.1578 241.6106 0000844  61.2341  17.4929 15.96248175  2719
STARLINK-37019          
1 68273U 26055M   26087.83335648 -.01142791  40712-3 -26689-2 0  9994
2 68273  53.1578 241.6040 0000905  58.2632  23.3856 15.96350335  2711
STARLINK-37129          
1 68274U 26055N   26087.83335648 -.01146196  40979-3 -26607-2 0  9993
2 68274  53.1576 241.5973 0000842  58.5506  26.4633 15.96461310  2710
STARLINK-37123          
1 68275U 26055P   26087.83335648 -.01153746  41518-3 -26623-2 0  9991
2 68275  53.1579 241.5915 0000959  54.1803  33.6321 15.96571980  2710
